{
  "type": "FeatureCollection",
  "features": [
    {
      "type": "Feature",
      "properties": {
        "norad_id": 41773,
        "name": "SKYSAT-C2",
        "group": "resource",
        "lat": -20.368752336300286,
        "lon": -165.0868309915024,
        "alt_km": 461.5535453762295,
        "timestamp": "2025-12-19T06:59:43.561469+00:00",
        "meta_object_name": "SKYSAT-C2",
        "meta_object_id": "2016-058D",
        "meta_epoch": "2025-12-18T14:30:19.757376",
        "meta_mean_motion": 15.37400266,
        "meta_eccentricity": 0.00035987,
        "meta_inclination": 97.0353,
        "meta_ra_of_asc_node": 16.8831,
        "meta_arg_of_pericenter": 18.6514,
        "meta_mean_anomaly": 341.4862,
        "meta_ephemeris_type": 0,
        "meta_classification_type": "U",
        "meta_norad_cat_id": 41773,
        "meta_element_set_no": 999,
        "meta_rev_at_epoch": 51726,
        "meta_bstar": 0.00026153985,
        "meta_mean_motion_dot": 9.515e-05,
        "meta_mean_motion_ddot": 0,
        "tle_line1": "1 41773U 16058D   25352.60439534  .00009515  00000+0  26154-3 0  9993",
        "tle_line2": "2 41773  97.0353  16.8831 0003598  18.6514 341.4862 15.37400266517261"
      },
      "geometry": {
        "type": "Point",
        "coordinates": [
          -165.0868309915024,
          -20.368752336300286
        ]
      }
    },
    {
      "type": "Feature",
      "properties": {
        "norad_id": 41774,
        "name": "SKYSAT-C3",
        "group": "resource",
        "lat": -17.79300135864971,
        "lon": -155.50351687347253,
        "alt_km": 437.6719422492097,
        "timestamp": "2025-12-19T06:59:43.561480+00:00",
        "meta_object_name": "SKYSAT-C3",
        "meta_object_id": "2016-058E",
        "meta_epoch": "2025-12-18T14:35:37.329216",
        "meta_mean_motion": 15.44601646,
        "meta_eccentricity": 0.00018498,
        "meta_inclination": 96.9291,
        "meta_ra_of_asc_node": 26.0815,
        "meta_arg_of_pericenter": 107.3542,
        "meta_mean_anomaly": 252.791,
        "meta_ephemeris_type": 0,
        "meta_classification_type": "U",
        "meta_norad_cat_id": 41774,
        "meta_element_set_no": 999,
        "meta_rev_at_epoch": 51816,
        "meta_bstar": 0.00033767466,
        "meta_mean_motion_dot": 0.00015636,
        "meta_mean_motion_ddot": 0,
        "tle_line1": "1 41774U 16058E   25352.60807094  .00015636  00000+0  33767-3 0  9993",
        "tle_line2": "2 41774  96.9291  26.0815 0001849 107.3542 252.7910 15.44601646518161"
      },
      "geometry": {
        "type": "Point",
        "coordinates": [
          -155.50351687347253,
          -17.79300135864971
        ]
      }
    },
    {
      "type": "Feature",
      "properties": {
        "norad_id": 41785,
        "name": "ALSAT 1B",
        "group": "resource",
        "lat": 28.7733334791252,
        "lon": -170.89480398546218,
        "alt_km": 650.0277358112398,
        "timestamp": "2025-12-19T06:59:43.561490+00:00",
        "meta_object_name": "ALSAT 1B",
        "meta_object_id": "2016-059C",
        "meta_epoch": "2025-12-18T23:47:17.575296",
        "meta_mean_motion": 14.7208096,
        "meta_eccentricity": 0.00107913,
        "meta_inclination": 97.7809,
        "meta_ra_of_asc_node": 4.5116,
        "meta_arg_of_pericenter": 85.7928,
        "meta_mean_anomaly": 274.4513,
        "meta_ephemeris_type": 0,
        "meta_classification_type": "U",
        "meta_norad_cat_id": 41785,
        "meta_element_set_no": 999,
        "meta_rev_at_epoch": 49406,
        "meta_bstar": 3.5248291e-05,
        "meta_mean_motion_dot": 1.75e-06,
        "meta_mean_motion_ddot": 0,
        "tle_line1": "1 41785U 16059C   25352.99117564  .00000175  00000+0  35248-4 0  9993",
        "tle_line2": "2 41785  97.7809   4.5116 0010791  85.7928 274.4513 14.72080960494067"
      },
      "geometry": {
        "type": "Point",
        "coordinates": [
          -170.89480398546218,
          28.7733334791252
        ]
      }
    },
    {
      "type": "Feature",
      "properties": {
        "norad_id": 41787,
        "name": "PATHFINDER 1",
        "group": "resource",
        "lat": 61.25880762380986,
        "lon": -169.7385933330452,
        "alt_km": 651.9662358308042,
        "timestamp": "2025-12-19T06:59:43.561501+00:00",
        "meta_object_name": "PATHFINDER 1",
        "meta_object_id": "2016-059E",
        "meta_epoch": "2025-12-18T22:16:49.999872",
        "meta_mean_motion": 14.67331687,
        "meta_eccentricity": 0.00298878,
        "meta_inclination": 97.8136,
        "meta_ra_of_asc_node": 355.4148,
        "meta_arg_of_pericenter": 62.3786,
        "meta_mean_anomaly": 298.0448,
        "meta_ephemeris_type": 0,
        "meta_classification_type": "U",
        "meta_norad_cat_id": 41787,
        "meta_element_set_no": 999,
        "meta_rev_at_epoch": 49327,
        "meta_bstar": 0.00011647023,
        "meta_mean_motion_dot": 6.15e-06,
        "meta_mean_motion_ddot": 0,
        "tle_line1": "1 41787U 16059E   25352.92835648  .00000615  00000+0  11647-3 0  9993",
        "tle_line2": "2 41787  97.8136 355.4148 0029887  62.3786 298.0448 14.67331687493275"
      },
      "geometry": {
        "type": "Point",
        "coordinates": [
          -169.7385933330452,
          61.25880762380986
        ]
      }
    },
    {
      "type": "Feature",
      "properties": {
        "norad_id": 41790,
        "name": "SCATSAT 1",
        "group": "resource",
        "lat": 22.899132267185166,
        "lon": 46.574816826739195,
        "alt_km": 627.9097158583381,
        "timestamp": "2025-12-19T06:59:43.561511+00:00",
        "meta_object_name": "SCATSAT 1",
        "meta_object_id": "2016-059H",
        "meta_epoch": "2025-12-18T17:54:03.536928",
        "meta_mean_motion": 14.78955761,
        "meta_eccentricity": 0.00564258,
        "meta_inclination": 98.1457,
        "meta_ra_of_asc_node": 49.491,
        "meta_arg_of_pericenter": 109.0385,
        "meta_mean_anomaly": 251.6949,
        "meta_ephemeris_type": 0,
        "meta_classification_type": "U",
        "meta_norad_cat_id": 41790,
        "meta_element_set_no": 999,
        "meta_rev_at_epoch": 7491,
        "meta_bstar": 0.00015739721,
        "meta_mean_motion_dot": 1.136e-05,
        "meta_mean_motion_ddot": 0,
        "tle_line1": "1 41790U 16059H   25352.74587427  .00001136  00000+0  15740-3 0  9993",
        "tle_line2": "2 41790  98.1457  49.4910 0056425 109.0385 251.6949 14.78955761 74912"
      },
      "geometry": {
        "type": "Point",
        "coordinates": [
          46.574816826739195,
          22.899132267185166
        ]
      }
    },
    {
      "type": "Feature",
      "properties": {
        "norad_id": 41875,
        "name": "GOKTURK 1A",
        "group": "resource",
        "lat": 81.54893527210027,
        "lon": 171.04797692562818,
        "alt_km": 675.8640643124609,
        "timestamp": "2025-12-19T06:59:43.561523+00:00",
        "meta_object_name": "GOKTURK 1A",
        "meta_object_id": "2016-073A",
        "meta_epoch": "2025-12-19T00:01:44.899968",
        "meta_mean_motion": 14.627865,
        "meta_eccentricity": 0.00012468,
        "meta_inclination": 98.1434,
        "meta_ra_of_asc_node": 245.2827,
        "meta_arg_of_pericenter": 80.119,
        "meta_mean_anomaly": 280.0153,
        "meta_ephemeris_type": 0,
        "meta_classification_type": "U",
        "meta_norad_cat_id": 41875,
        "meta_element_set_no": 999,
        "meta_rev_at_epoch": 48248,
        "meta_bstar": 7.9252997e-05,
        "meta_mean_motion_dot": 3.57e-06,
        "meta_mean_motion_ddot": 0,
        "tle_line1": "1 41875U 16073A   25353.00121412  .00000357  00000+0  79253-4 0  9995",
        "tle_line2": "2 41875  98.1434 245.2827 0001246  80.1190 280.0153 14.62786500482482"
      },
      "geometry": {
        "type": "Point",
        "coordinates": [
          171.04797692562818,
          81.54893527210027
        ]
      }
    },
    {
      "type": "Feature",
      "properties": {
        "norad_id": 41877,
        "name": "RESOURCESAT-2A",
        "group": "resource",
        "lat": -65.48261797360372,
        "lon": -136.6872025855134,
        "alt_km": 826.2369294565688,
        "timestamp": "2025-12-19T06:59:43.561535+00:00",
        "meta_object_name": "RESOURCESAT-2A",
        "meta_object_id": "2016-074A",
        "meta_epoch": "2025-12-18T23:04:49.425024",
        "meta_mean_motion": 14.21602172,
        "meta_eccentricity": 0.00013527,
        "meta_inclination": 98.7756,
        "meta_ra_of_asc_node": 62.7816,
        "meta_arg_of_pericenter": 225.1924,
        "meta_mean_anomaly": 134.9144,
        "meta_ephemeris_type": 0,
        "meta_classification_type": "U",
        "meta_norad_cat_id": 41877,
        "meta_element_set_no": 999,
        "meta_rev_at_epoch": 46869,
        "meta_bstar": 9.8134365e-05,
        "meta_mean_motion_dot": 1.71e-06,
        "meta_mean_motion_ddot": 0,
        "tle_line1": "1 41877U 16074A   25352.96168316  .00000171  00000+0  98134-4 0  9999",
        "tle_line2": "2 41877  98.7756  62.7816 0001352 225.1924 134.9144 14.21602172468692"
      },
      "geometry": {
        "type": "Point",
        "coordinates": [
          -136.6872025855134,
          -65.48261797360372
        ]
      }
    }
  ]
}